[{"OBJECT_NAME":"STARLINK-1911","OBJECT_ID":"2020-074L","EPOCH":"2026-03-10T00:00:02.999808","MEAN_MOTION":15.7196626,"ECCENTRICITY":0.00010753,"INCLINATION":53.0465,"RA_OF_ASC_NODE":276.9224,"ARG_OF_PERICENTER":50.1756,"MEAN_ANOMALY":209.8955,"EPHEMERIS_TYPE":0,"CLASSIFICATION_TYPE":"U","NORAD_CAT_ID":46749,"ELEMENT_SET_NO":999,"REV_AT_EPOCH":580,"BSTAR":0.00055147557,"MEAN_MOTION_DOT":0.00073486,"MEAN_MOTION_DDOT":0},{"OBJECT_NAME":"STARLINK-11628 [DTC]","OBJECT_ID":"2025-043H","EPOCH":"2026-03-09T21:17:36.358368","MEAN_MOTION":15.70806745,"ECCENTRICITY":0.0001032,"INCLINATION":43.0005,"RA_OF_ASC_NODE":249.4844,"ARG_OF_PERICENTER":304.8744,"MEAN_ANOMALY":55.2027,"EPHEMERIS_TYPE":0,"CLASSIFICATION_TYPE":"U","NORAD_CAT_ID":63139,"ELEMENT_SET_NO":999,"REV_AT_EPOCH":5950,"BSTAR":0.0016439026,"MEAN_MOTION_DOT":0.00215751,"MEAN_MOTION_DDOT":0}]
